TIANMU-1 08             
1 57400U 23101B   26066.00237819  .00000346  00000+0  14775-4 0  9993
2 57400  97.2717 118.7901 0006380 134.2174 225.9592 15.29204229146020
STARLINK-34863          
1 66190U 25243P   26068.76819120  .00028985  00000+0  98701-3 0  9993
2 66190  53.1585 245.0418 0000799  71.4702 288.6386 15.30197257 20666
